{"type": "FeatureCollection", "features": [ {"type": "Feature", "properties": {"norad_id": 35959, "name": "COSMOS 2251 DEB", "group": "cosmos-2251-debris", "lat": -69.76653206583735, "lon": -163.92207225984635, "alt_km": 798.1143249136794, "timestamp": "2025-12-05T14:45:15.694493+00:00", "meta": {"OBJECT_NAME": "COSMOS 2251 DEB", "OBJECT_ID": "1993-036AUZ", "EPOCH": "2025-12-04T05:44:56.809824", "MEAN_MOTION": 14.3412652, "ECCENTRICITY": 0.002123, "INCLINATION": 74.0321, "RA_OF_ASC_NODE": 327.6255, "ARG_OF_PERICENTER": 50.7905, "MEAN_ANOMALY": 309.5127, "EPHEMERIS_TYPE": 0, "CLASSIFICATION_TYPE": "U", "NORAD_CAT_ID": 35959, "ELEMENT_SET_NO": 999, "REV_AT_EPOCH": 84806, "BSTAR": 0.00022958, "MEAN_MOTION_DOT": 6.18e-06, "MEAN_MOTION_DDOT": 0}, "tle": {"line1": "1 35959U 93036AUZ 25338.23954641  .00000618  00000+0  22958-3 0  9990", "line2": "2 35959  74.0321 327.6255 0021230  50.7905 309.5127 14.34126520848065"}}, "geometry": {"type": "Point", "coordinates": [-163.92207225984635, -69.76653206583735]}}, {"type": "Feature", "properties": {"norad_id": 35961, "name": "COSMOS 2251 DEB", "group": "cosmos-2251-debris", "lat": -26.456734637585953, "lon": 44.96176499522887, "alt_km": 800.3181179355861, "timestamp": "2025-12-05T14:45:15.694509+00:00", "meta": {"OBJECT_NAME": "COSMOS 2251 DEB", "OBJECT_ID": "1993-036AVB", "EPOCH": "2025-11-29T09:08:47.173056", "MEAN_MOTION": 14.05319505, "ECCENTRICITY": 0.01924432, "INCLINATION": 73.9254, "RA_OF_ASC_NODE": 227.671, "ARG_OF_PERICENTER": 163.9834, "MEAN_ANOMALY": 196.7506, "EPHEMERIS_TYPE": 0, "CLASSIFICATION_TYPE": "U", "NORAD_CAT_ID": 35961, "ELEMENT_SET_NO": 999, "REV_AT_EPOCH": 62494, "BSTAR": 0.00062484461, "MEAN_MOTION_DOT": 1.171e-05, "MEAN_MOTION_DDOT": 0}, "tle": {"line1": "1 35961U 93036AVB 25333.38110154  .00001171  00000+0  62484-3 0  9990", "line2": "2 35961  73.9254 227.6710 0192443 163.9834 196.7506 14.05319505624940"}}, "geometry": {"type": "Point", "coordinates": [44.96176499522887, -26.456734637585953]}}, {"type": "Feature", "properties": {"norad_id": 35979, "name": "COSMOS 2251 DEB", "group": "cosmos-2251-debris", "lat": 54.74664797398649, "lon": 48.388236298708385, "alt_km": 645.0107322692866, "timestamp": "2025-12-05T14:45:15.694519+00:00", "meta": {"OBJECT_NAME": "COSMOS 2251 DEB", "OBJECT_ID": "1993-036AVV", "EPOCH": "2025-12-04T12:57:50.431392", "MEAN_MOTION": 14.74469287, "ECCENTRICITY": 0.0058708, "INCLINATION": 74.011, "RA_OF_ASC_NODE": 254.4216, "ARG_OF_PERICENTER": 28.4966, "MEAN_ANOMALY": 150.8593, "EPHEMERIS_TYPE": 0, "CLASSIFICATION_TYPE": "U", "NORAD_CAT_ID": 35979, "ELEMENT_SET_NO": 999, "REV_AT_EPOCH": 88512, "BSTAR": 0.0024348, "MEAN_MOTION_DOT": 0.00016643, "MEAN_MOTION_DDOT": 0}, "tle": {"line1": "1 35979U 93036AVV 25338.54016703  .00016643  00000+0  24348-2 0  9993", "line2": "2 35979  74.0110 254.4216 0058708  28.4966 150.8593 14.74469287885122"}}, "geometry": {"type": "Point", "coordinates": [48.388236298708385, 54.74664797398649]}}, {"type": "Feature", "properties": {"norad_id": 35980, "name": "COSMOS 2251 DEB", "group": "cosmos-2251-debris", "lat": 31.741531216047548, "lon": 146.65146362124375, "alt_km": 713.7228663876995, "timestamp": "2025-12-05T14:45:15.694529+00:00", "meta": {"OBJECT_NAME": "COSMOS 2251 DEB", "OBJECT_ID": "1993-036AVW", "EPOCH": "2025-12-02T19:08:08.015136", "MEAN_MOTION": 14.59062146, "ECCENTRICITY": 0.00537712, "INCLINATION": 73.91, "RA_OF_ASC_NODE": 141.7735, "ARG_OF_PERICENTER": 277.5645, "MEAN_ANOMALY": 81.9413, "EPHEMERIS_TYPE": 0, "CLASSIFICATION_TYPE": "U", "NORAD_CAT_ID": 35980, "ELEMENT_SET_NO": 999, "REV_AT_EPOCH": 61341, "BSTAR": 0.002036555, "MEAN_MOTION_DOT": 9.752e-05, "MEAN_MOTION_DDOT": 0}, "tle": {"line1": "1 35980U 93036AVW 25336.79731499  .00009752  00000+0  20366-2 0  9995", "line2": "2 35980  73.9100 141.7735 0053771 277.5645  81.9413 14.59062146613413"}}, "geometry": {"type": "Point", "coordinates": [146.65146362124375, 31.741531216047548]}}, {"type": "Feature", "properties": {"norad_id": 35982, "name": "COSMOS 2251 DEB", "group": "cosmos-2251-debris", "lat": -45.20596423109365, "lon": -162.698684354097, "alt_km": 732.8790161701127, "timestamp": "2025-12-05T14:45:15.694540+00:00", "meta": {"OBJECT_NAME": "COSMOS 2251 DEB", "OBJECT_ID": "1993-036AVY", "EPOCH": "2025-12-03T19:02:35.342304", "MEAN_MOTION": 14.6267509, "ECCENTRICITY": 0.0064053, "INCLINATION": 74.0591, "RA_OF_ASC_NODE": 4.0543, "ARG_OF_PERICENTER": 73.1235, "MEAN_ANOMALY": 287.6943, "EPHEMERIS_TYPE": 0, "CLASSIFICATION_TYPE": "U", "NORAD_CAT_ID": 35982, "ELEMENT_SET_NO": 999, "REV_AT_EPOCH": 86035, "BSTAR": 0.00091326, "MEAN_MOTION_DOT": 4.759e-05, "MEAN_MOTION_DDOT": 0}, "tle": {"line1": "1 35982U 93036AVY 25337.79346461  .00004759  00000+0  91326-3 0  9996", "line2": "2 35982  74.0591   4.0543 0064053  73.1235 287.6943 14.62675090860351"}}, "geometry": {"type": "Point", "coordinates": [-162.698684354097, -45.20596423109365]}}, {"type": "Feature", "properties": {"norad_id": 35987, "name": "COSMOS 2251 DEB", "group": "cosmos-2251-debris", "lat": 2.349692368390197, "lon": -19.41677674000908, "alt_km": 759.4187211891749, "timestamp": "2025-12-05T14:45:15.694550+00:00", "meta": {"OBJECT_NAME": "COSMOS 2251 DEB", "OBJECT_ID": "1993-036AWD", "EPOCH": "2025-12-01T10:54:45.006048", "MEAN_MOTION": 14.43015331, "ECCENTRICITY": 0.00459843, "INCLINATION": 73.9994, "RA_OF_ASC_NODE": 347.6475, "ARG_OF_PERICENTER": 116.8368, "MEAN_ANOMALY": 243.7501, "EPHEMERIS_TYPE": 0, "CLASSIFICATION_TYPE": "U", "NORAD_CAT_ID": 35987, "ELEMENT_SET_NO": 999, "REV_AT_EPOCH": 60902, "BSTAR": 0.00096989757, "MEAN_MOTION_DOT": 3.265e-05, "MEAN_MOTION_DDOT": 0}, "tle": {"line1": "1 35987U 93036AWD 25335.45468757  .00003265  00000+0  96990-3 0  9998", "line2": "2 35987  73.9994 347.6475 0045984 116.8368 243.7501 14.43015331609028"}}, "geometry": {"type": "Point", "coordinates": [-19.41677674000908, 2.349692368390197]}}, {"type": "Feature", "properties": {"norad_id": 35989, "name": "COSMOS 2251 DEB", "group": "cosmos-2251-debris", "lat": -21.004216170592805, "lon": 123.2499524216021, "alt_km": 788.3653131618739, "timestamp": "2025-12-05T14:45:15.694560+00:00", "meta": {"OBJECT_NAME": "COSMOS 2251 DEB", "OBJECT_ID": "1993-036AWF", "EPOCH": "2025-11-27T07:00:06.233184", "MEAN_MOTION": 14.37066498, "ECCENTRICITY": 0.00214096, "INCLINATION": 74.0374, "RA_OF_ASC_NODE": 312.2392, "ARG_OF_PERICENTER": 38.1471, "MEAN_ANOMALY": 322.1192, "EPHEMERIS_TYPE": 0, "CLASSIFICATION_TYPE": "U", "NORAD_CAT_ID": 35989, "ELEMENT_SET_NO": 999, "REV_AT_EPOCH": 86957, "BSTAR": 0.00024367588, "MEAN_MOTION_DOT": 6.99e-06, "MEAN_MOTION_DDOT": 0}, "tle": {"line1": "1 35989U 93036AWF 25331.29173881  .00000699  00000+0  24368-3 0  9997", "line2": "2 35989  74.0374 312.2392 0021409  38.1471 322.1192 14.37066498869576"}}, "geometry": {"type": "Point", "coordinates": [123.2499524216021, -21.004216170592805]}}, {"type": "Feature", "properties": {"norad_id": 35993, "name": "COSMOS 2251 DEB", "group": "cosmos-2251-debris", "lat": 70.21989817507459, "lon": 39.38087067903991, "alt_km": 672.7779277815598, "timestamp": "2025-12-05T14:45:15.694570+00:00", "meta": {"OBJECT_NAME": "COSMOS 2251 DEB", "OBJECT_ID": "1993-036AWK", "EPOCH": "2025-12-04T07:15:45.477216", "MEAN_MOTION": 14.6520036, "ECCENTRICITY": 0.0029389, "INCLINATION": 74.0149, "RA_OF_ASC_NODE": 349.0555, "ARG_OF_PERICENTER": 181.1599, "MEAN_ANOMALY": 178.9507, "EPHEMERIS_TYPE": 0, "CLASSIFICATION_TYPE": "U", "NORAD_CAT_ID": 35993, "ELEMENT_SET_NO": 999, "REV_AT_EPOCH": 60319, "BSTAR": 0.0015487, "MEAN_MOTION_DOT": 8.369e-05, "MEAN_MOTION_DDOT": 0}, "tle": {"line1": "1 35993U 93036AWK 25338.30260969  .00008369  00000+0  15487-2 0  9998", "line2": "2 35993  74.0149 349.0555 0029389 181.1599 178.9507 14.65200360603195"}}, "geometry": {"type": "Point", "coordinates": [39.38087067903991, 70.21989817507459]}}, {"type": "Feature", "properties": {"norad_id": 35996, "name": "COSMOS 2251 DEB", "group": "cosmos-2251-debris", "lat": 54.56048937337176, "lon": -85.62888103131648, "alt_km": 532.1686692625326, "timestamp": "2025-12-05T14:45:15.694580+00:00", "meta": {"OBJECT_NAME": "COSMOS 2251 DEB", "OBJECT_ID": "1993-036AWN", "EPOCH": "2025-12-02T16:11:16.473408", "MEAN_MOTION": 15.08726823, "ECCENTRICITY": 0.00894127, "INCLINATION": 74.0129, "RA_OF_ASC_NODE": 124.191, "ARG_OF_PERICENTER": 217.4013, "MEAN_ANOMALY": 142.0936, "EPHEMERIS_TYPE": 0, "CLASSIFICATION_TYPE": "U", "NORAD_CAT_ID": 35996, "ELEMENT_SET_NO": 999, "REV_AT_EPOCH": 72174, "BSTAR": 0.0010208525, "MEAN_MOTION_DOT": 0.00017591, "MEAN_MOTION_DDOT": 0}, "tle": {"line1": "1 35996U 93036AWN 25336.67449622  .00017591  00000+0  10209-2 0  9998", "line2": "2 35996  74.0129 124.1910 0089412 217.4013 142.0936 15.08726823721745"}}, "geometry": {"type": "Point", "coordinates": [-85.62888103131648, 54.56048937337176]}}, {"type": "Feature", "properties": {"norad_id": 35997, "name": "COSMOS 2251 DEB", "group": "cosmos-2251-debris", "lat": -66.79384858468863, "lon": 62.55713972535182, "alt_km": 718.0534432194881, "timestamp": "2025-12-05T14:45:15.694590+00:00", "meta": {"OBJECT_NAME": "COSMOS 2251 DEB", "OBJECT_ID": "1993-036AWP", "EPOCH": "2025-12-02T07:50:00.553056", "MEAN_MOTION": 14.51236016, "ECCENTRICITY": 0.00159085, "INCLINATION": 74.0439, "RA_OF_ASC_NODE": 206.8774, "ARG_OF_PERICENTER": 283.0639, "MEAN_ANOMALY": 76.8746, "EPHEMERIS_TYPE": 0, "CLASSIFICATION_TYPE": "U", "NORAD_CAT_ID": 35997, "ELEMENT_SET_NO": 999, "REV_AT_EPOCH": 70733, "BSTAR": 0.00076938672, "MEAN_MOTION_DOT": 3.037e-05, "MEAN_MOTION_DDOT": 0}, "tle": {"line1": "1 35997U 93036AWP 25336.32639529  .00003037  00000+0  76939-3 0  9991", "line2": "2 35997  74.0439 206.8774 0015908 283.0639  76.8746 14.51236016707337"}}, "geometry": {"type": "Point", "coordinates": [62.55713972535182, -66.79384858468863]}}]}